CCSDS_OEM_VERS = 1.0
CREATION_DATE  = 2017-05-11T11:06:37
ORIGINATOR     = GMAT USER

META_START
OBJECT_NAME          = MOPSSat_alt_35785_km_RAAN_0_139
OBJECT_ID            = SatId
CENTER_NAME          = Earth
REF_FRAME            = EME2000
TIME_SYSTEM          = UTC
START_TIME           = 2017-01-01T00:00:00.000
USEABLE_START_TIME   = 2017-01-01T00:00:00.000
USEABLE_STOP_TIME    = 2017-01-02T00:00:00.000
STOP_TIME            = 2017-01-02T00:00:00.000
INTERPOLATION        = Lagrange
INTERPOLATION_DEGREE = 7 
META_STOP


                                                                                   

2017-01-01T09:55:50.000  -5.594898809518662e+04   1.447885388717462e+04   1.274779223816815e+02  -8.408822715861163e-01  -1.905941204867818e+00  -1.655662977772367e-02
2017-01-01T09:56:00.000  -5.595739114102870e+04   1.445979298140384e+04   1.273123431112546e+02  -8.397269150901958e-01  -1.906239905778185e+00  -1.655922393021939e-02
2017-01-01T09:56:10.000  -5.596578263338835e+04   1.444072909098524e+04   1.271467379197990e+02  -8.385715867515557e-01  -1.906538161024378e+00  -1.656181421447409e-02
2017-01-01T09:56:20.000  -5.597416257258556e+04   1.442166222028689e+04   1.269811068452276e+02  -8.374162865399063e-01  -1.906835970767055e+00  -1.656440063189908e-02
2017-01-01T09:56:30.000  -5.598253095893931e+04   1.440259237367683e+04   1.268154499254529e+02  -8.362610144249902e-01  -1.907133335166589e+00  -1.656698318390312e-02
2017-01-01T09:56:40.000  -5.599088779276476e+04   1.438351955552997e+04   1.266497671984469e+02  -8.351057703769990e-01  -1.907430254382958e+00  -1.656956187189161e-02
2017-01-01T09:56:50.000  -5.599923307436401e+04   1.436444377024693e+04   1.264840587024050e+02  -8.339505543677255e-01  -1.907726728575428e+00  -1.657213669726370e-02
2017-01-01T09:57:00.000  -5.600756680402045e+04   1.434536502226948e+04   1.263183244758794e+02  -8.327953663714871e-01  -1.908022757902344e+00  -1.657470766141056e-02
2017-01-01T09:57:10.000  -5.601588898202287e+04   1.432628331602434e+04   1.261525645572920e+02  -8.316402063617269e-01  -1.908318342521993e+00  -1.657727476572282e-02
2017-01-01T09:57:20.000  -5.602419960855691e+04   1.430719865617493e+04   1.259867789871202e+02  -8.304850743262335e-01  -1.908613482588749e+00  -1.657983801155713e-02
2017-01-01T09:57:30.000  -5.603249868383692e+04   1.428811104731638e+04   1.258209678052487e+02  -8.293299702486980e-01  -1.908908178257751e+00  -1.658239740027679e-02
2017-01-01T09:57:40.000  -5.604078620805666e+04   1.426902049408895e+04   1.256551310519531e+02  -8.281748941155741e-01  -1.909202429683159e+00  -1.658495293323655e-02
2017-01-01T09:57:50.000  -5.604906218158025e+04   1.424992700073884e+04   1.254892687640865e+02  -8.270198458895075e-01  -1.909496237024928e+00  -1.658750461184150e-02
2017-01-01T09:58:00.000  -5.605732660475167e+04   1.423083057155628e+04   1.253233809788842e+02  -8.258648255358380e-01  -1.909789600442048e+00  -1.659005243748836e-02
2017-01-01T09:58:10.000  -5.606557947793812e+04   1.421173121077625e+04   1.251574677331010e+02  -8.247098330165956e-01  -1.910082520094082e+00  -1.659259641157878e-02
2017-01-01T09:58:20.000  -5.607382080142153e+04   1.419262892282547e+04   1.249915290651577e+02  -8.235548683054625e-01  -1.910374996137316e+00  -1.659513653548594e-02
2017-01-01T09:58:30.000  -5.608205057547970e+04   1.417352371213921e+04   1.248255650135488e+02  -8.223999313766626e-01  -1.910667028727633e+00  -1.659767281057953e-02
2017-01-01T09:58:40.000  -5.609026880038541e+04   1.415441558316109e+04   1.246595756168412e+02  -8.212450222049649e-01  -1.910958618020492e+00  -1.660020523822557e-02
2017-01-01T09:58:50.000  -5.609847547632912e+04   1.413530454052716e+04   1.244935609152737e+02  -8.200901407767828e-01  -1.911249764168185e+00  -1.660273381976249e-02
2017-01-01T09:59:00.000  -5.610667060352389e+04   1.411619058881816e+04   1.243275209486039e+02  -8.189352870752230e-01  -1.911540467323551e+00  -1.660525855653353e-02
2017-01-01T09:59:10.000  -5.611485418216383e+04   1.409707373265702e+04   1.241614557569562e+02  -8.177804610859738e-01  -1.911830727638510e+00  -1.660777944987393e-02
2017-01-01T09:59:20.000  -5.612302621260879e+04   1.407795397627757e+04   1.239953653770744e+02  -8.166256627712482e-01  -1.912120545270614e+00  -1.661029650116777e-02
2017-01-01T09:59:30.000  -5.613118669519963e+04   1.405883132395578e+04   1.238292498460686e+02  -8.154708920958407e-01  -1.912409920376488e+00  -1.661280971179116e-02
2017-01-01T09:59:40.000  -5.613933563030012e+04   1.403970577991241e+04   1.236631092005687e+02  -8.143161490212396e-01  -1.912698853113323e+00  -1.661531908312504e-02
2017-01-01T09:59:50.000  -5.614747301818988e+04   1.402057734856021e+04   1.234969434788727e+02  -8.131614335205820e-01  -1.912987343635070e+00  -1.661782461652227e-02
2017-01-01T10:00:00.000  -5.615559885914421e+04   1.400144603432053e+04   1.233307527193528e+02  -8.120067455675504e-01  -1.913275392095289e+00  -1.662032631333224e-02
2017-01-01T10:00:10.000  -5.616371315343368e+04   1.398231184162307e+04   1.231645369604538e+02  -8.108520851363713e-01  -1.913562998647113e+00  -1.662282417490064e-02
2017-01-01T10:00:20.000  -5.617181590124752e+04   1.396317477509031e+04   1.229982962422948e+02  -8.096974522129161e-01  -1.913850163440550e+00  -1.662531820254605e-02
2017-01-01T10:00:30.000  -5.617990710279719e+04   1.394403483928934e+04   1.228320306045138e+02  -8.085428467797495e-01  -1.914136886626150e+00  -1.662780839759168e-02
2017-01-01T10:00:40.000  -5.618798675827473e+04   1.392489203883138e+04   1.226657400871319e+02  -8.073882688221321e-01  -1.914423168353526e+00  -1.663029476135264e-02
2017-01-01T10:00:50.000  -5.619605486803807e+04   1.390574637793263e+04   1.224994247267384e+02  -8.062337183015292e-01  -1.914709008777919e+00  -1.663277729519291e-02
2017-01-01T10:01:00.000  -5.620411143242510e+04   1.388659786085453e+04   1.223330845603158e+02  -8.050791951821702e-01  -1.914994408053615e+00  -1.663525600046813e-02
2017-01-01T10:01:10.000  -5.621215645180170e+04   1.386744649179018e+04   1.221667196242524e+02  -8.039246994241913e-01  -1.915279366335646e+00  -1.663773087854044e-02
2017-01-01T10:01:20.000  -5.622018992643215e+04   1.384829227516977e+04   1.220003299569961e+02  -8.027702310020743e-01  -1.915563883775191e+00  -1.664020193073850e-02
2017-01-01T10:01:30.000  -5.622821185658619e+04   1.382913521540857e+04   1.218339155968652e+02  -8.016157898894301e-01  -1.915847960523382e+00  -1.664266915839054e-02
2017-01-01T10:01:40.000  -5.623622224251444e+04   1.380997531696502e+04   1.216674765825526e+02  -8.004613760625084e-01  -1.916131596730424e+00  -1.664513256281674e-02
2017-01-01T10:01:50.000  -5.624422108445865e+04   1.379081258431843e+04   1.215010129529324e+02  -7.993069894988362e-01  -1.916414792545958e+00  -1.664759214533239e-02
2017-01-01T10:02:00.000  -5.625220838265541e+04   1.377164702195804e+04   1.213345247469647e+02  -7.981526301765720e-01  -1.916697548119205e+00  -1.665004790724908e-02
2017-01-01T10:02:10.000  -5.626018413734572e+04   1.375247863436010e+04   1.211680120034969e+02  -7.969982980731271e-01  -1.916979863599293e+00  -1.665249984987760e-02
2017-01-01T10:02:20.000  -5.626814834878036e+04   1.373330742597731e+04   1.210014747611716e+02  -7.958439931645162e-01  -1.917261739135449e+00  -1.665494797452959e-02
2017-01-01T10:02:30.000  -5.627610101722805e+04   1.371413340121610e+04   1.208349130582290e+02  -7.946897154239999e-01  -1.917543174877294e+00  -1.665739228252014e-02
2017-01-01T10:02:40.000  -5.628404214295207e+04   1.369495656449488e+04   1.206683269330136e+02  -7.935354648255937e-01  -1.917824170974006e+00  -1.665983277516042e-02
2017-01-01T10:02:50.000  -5.629197172631342e+04   1.367577691999116e+04   1.205017164217768e+02  -7.923812413288582e-01  -1.918104727577977e+00  -1.666226945378955e-02
2017-01-01T10:03:00.000  -5.629988976764527e+04   1.365659447194797e+04   1.203350815613392e+02  -7.912270448973294e-01  -1.918384844840372e+00  -1.666470231973595e-02
2017-01-01T10:03:10.000  -5.630779626730061e+04   1.363740922455811e+04   1.201684223880848e+02  -7.900728754915526e-01  -1.918664522912806e+00  -1.666713137433196e-02
2017-01-01T10:03:20.000  -5.631569122546729e+04   1.361822118241266e+04   1.200017389418573e+02  -7.889187330960685e-01  -1.918943761940812e+00  -1.666955661885709e-02
2017-01-01T10:03:30.000  -5.632357464235293e+04   1.359903035005247e+04   1.198350312620638e+02  -7.877646176924272e-01  -1.919222562070378e+00  -1.667197805459478e-02
2017-01-01T10:03:40.000  -5.633144651813731e+04   1.357983673208390e+04   1.196682993886805e+02  -7.866105292661547e-01  -1.919500923446259e+00  -1.667439568281777e-02
2017-01-01T10:03:50.000  -5.633930685309909e+04   1.356064033287270e+04   1.195015433595932e+02  -7.854564677883218e-01  -1.919778846216472e+00  -1.667680950482707e-02
2017-01-01T10:04:00.000  -5.634715564751100e+04   1.354144115679657e+04   1.193347632127913e+02  -7.843024332307534e-01  -1.920056330528574e+00  -1.667921952191975e-02
2017-01-01T10:04:10.000  -5.635499290166392e+04   1.352223920818693e+04   1.191679589858621e+02  -7.831484255625232e-01  -1.920333376530524e+00  -1.668162573539632e-02
2017-01-01T10:04:20.000  -5.636281861585704e+04   1.350303449135136e+04   1.190011307161858e+02  -7.819944447513133e-01  -1.920609984370327e+00  -1.668402814655771e-02
2017-01-01T10:04:30.000  -5.637063279039385e+04   1.348382701058447e+04   1.188342784410295e+02  -7.808404907640599e-01  -1.920886154195900e+00  -1.668642675670404e-02
2017-01-01T10:04:40.000  -5.637843542557298e+04   1.346461677019094e+04   1.186674021977476e+02  -7.796865635683325e-01  -1.921161886154745e+00  -1.668882156713185e-02
2017-01-01T10:04:50.000  -5.638622652168317e+04   1.344540377449605e+04   1.185005020238737e+02  -7.785326631329833e-01  -1.921437180393767e+00  -1.669121257913245e-02
